start=new Date('2022-12-26T00:00:00.000Z').valueOf();
sats=[{"MEAN_ELEMENT_THEORY":"SGP4","ECCENTRICITY":"0.00017640","MEAN_MOTION_DDOT":"0.0000000000000","REF_FRAME":"TEME","COUNTRY_CODE":"US","RA_OF_ASC_NODE":"118.5733","GP_ID":"221451181","MEAN_MOTION":"15.06392724","MEAN_MOTION_DOT":"-0.00000752","RCS_SIZE":"LARGE","INCLINATION":"53.0548","PERIAPSIS":"546.014","CLASSIFICATION_TYPE":"U","MEAN_ANOMALY":"313.1920","EPHEMERIS_TYPE":"0","ARG_OF_PERICENTER":"46.9216","OBJECT_NAME":"STARLINK-2294","TLE_LINE1":"1 48020U 21024AV  22359.86526933 -.00000752  00000-0 -31605-4 0  9991","APOAPSIS":"548.457","BSTAR":"-0.00003160500000","TIME_SYSTEM":"UTC","CENTER_NAME":"EARTH","OBJECT_TYPE":"PAYLOAD","FILE":"3722315","SEMIMAJOR_AXIS":"6925.371","LAUNCH_DATE":"2021-03-24","OBJECT_ID":"2021-024AV","DECAY_DATE":null,"SITE":"AFETR","PERIOD":"95.593","ELEMENT_SET_NO":"999","EPOCH":"2022-12-25T20:45:59.270112","TLE_LINE2":"2 48020  53.0548 118.5733 0001764  46.9216 313.1920 15.06392724 99157","NORAD_CAT_ID":"48020","REV_AT_EPOCH":"9915"},{"REV_AT_EPOCH":"9906","TLE_LINE2":"2 48021  53.0534 124.3067 0001671  61.0525 299.0632 15.06392301 99069","NORAD_CAT_ID":"48021","EPOCH":"2022-12-25T14:41:40.699104","DECAY_DATE":null,"SITE":"AFETR","PERIOD":"95.593","OBJECT_ID":"2021-024AW","ELEMENT_SET_NO":"999","SEMIMAJOR_AXIS":"6925.372","LAUNCH_DATE":"2021-03-24","FILE":"3722315","OBJECT_TYPE":"PAYLOAD","CENTER_NAME":"EARTH","TLE_LINE1":"1 48021U 21024AW  22359.61227661  .00000734  00000-0  68219-4 0  9990","BSTAR":"0.00006821900000","APOAPSIS":"548.394","TIME_SYSTEM":"UTC","OBJECT_NAME":"STARLINK-2301","ARG_OF_PERICENTER":"61.0525","EPHEMERIS_TYPE":"0","MEAN_ANOMALY":"299.0632","CLASSIFICATION_TYPE":"U","INCLINATION":"53.0534","RCS_SIZE":"LARGE","PERIAPSIS":"546.080","MEAN_MOTION_DOT":"0.00000734","MEAN_MOTION":"15.06392301","GP_ID":"221450429","RA_OF_ASC_NODE":"124.3067","COUNTRY_CODE":"US","REF_FRAME":"TEME","MEAN_MOTION_DDOT":"0.0000000000000","ECCENTRICITY":"0.00016710","MEAN_ELEMENT_THEORY":"SGP4"},{"MEAN_ANOMALY":"273.4220","EPHEMERIS_TYPE":"0","OBJECT_NAME":"STARLINK-2298","APOAPSIS":"548.488","BSTAR":"0.00024339000000","TIME_SYSTEM":"UTC","TLE_LINE1":"1 48022U 21024AX  22359.90535600  .00003343  00000-0  24339-3 0  9991","ARG_OF_PERICENTER":"86.6968","FILE":"3722315","SEMIMAJOR_AXIS":"6925.419","LAUNCH_DATE":"2021-03-24","CENTER_NAME":"EARTH","OBJECT_TYPE":"PAYLOAD","NORAD_CAT_ID":"48022","TLE_LINE2":"2 48022  53.0532 183.2667 0001738  86.6968 273.4220 15.06377021 98314","REV_AT_EPOCH":"9831","ELEMENT_SET_NO":"999","SITE":"AFETR","DECAY_DATE":null,"OBJECT_ID":"2021-024AX","PERIOD":"95.594","EPOCH":"2022-12-25T21:43:42.758400","REF_FRAME":"TEME","MEAN_ELEMENT_THEORY":"SGP4","MEAN_MOTION_DDOT":"0.0000000000000","ECCENTRICITY":"0.00017380","GP_ID":"221450679","COUNTRY_CODE":"US","RA_OF_ASC_NODE":"183.2667","MEAN_MOTION":"15.06377021","CLASSIFICATION_TYPE":"U","MEAN_MOTION_DOT":"0.00003343","PERIAPSIS":"546.080","RCS_SIZE":"LARGE","INCLINATION":"53.0532"},{"ARG_OF_PERICENTER":"91.6270","OBJECT_NAME":"STARLINK-2292","TLE_LINE1":"1 48023U 21024AY  22359.89425431 -.00000389  00000-0 -72290-5 0  9990","TIME_SYSTEM":"UTC","APOAPSIS":"548.263","BSTAR":"-0.00000722900000","MEAN_ANOMALY":"268.4887","EPHEMERIS_TYPE":"0","PERIOD":"95.593","DECAY_DATE":null,"SITE":"AFETR","OBJECT_ID":"2021-024AY","ELEMENT_SET_NO":"999","EPOCH":"2022-12-25T21:27:43.572384","TLE_LINE2":"2 48023  53.0532 183.0423 0001464  91.6270 268.4887 15.06388439 98319","NORAD_CAT_ID":"48023","REV_AT_EPOCH":"9831","CENTER_NAME":"EARTH","OBJECT_TYPE":"PAYLOAD","FILE":"3722315","LAUNCH_DATE":"2021-03-24","SEMIMAJOR_AXIS":"6925.384","COUNTRY_CODE":"US","RA_OF_ASC_NODE":"183.0423","GP_ID":"221450931","MEAN_ELEMENT_THEORY":"SGP4","ECCENTRICITY":"0.00014640","MEAN_MOTION_DDOT":"0.0000000000000","REF_FRAME":"TEME","MEAN_MOTION_DOT":"-0.00000389","RCS_SIZE":"LARGE","INCLINATION":"53.0532","PERIAPSIS":"546.235","CLASSIFICATION_TYPE":"U","MEAN_MOTION":"15.06388439"},{"REF_FRAME":"TEME","MEAN_ELEMENT_THEORY":"SGP4","MEAN_MOTION_DDOT":"0.0000000000000","ECCENTRICITY":"0.00012710","GP_ID":"221451681","COUNTRY_CODE":"US","RA_OF_ASC_NODE":"188.4284","MEAN_MOTION":"15.06402360","CLASSIFICATION_TYPE":"U","MEAN_MOTION_DOT":"0.00001280","PERIAPSIS":"546.326","RCS_SIZE":"LARGE","INCLINATION":"53.0544","MEAN_ANOMALY":"244.6694","EPHEMERIS_TYPE":"0","OBJECT_NAME":"STARLINK-2278","APOAPSIS":"548.087","BSTAR":"0.00010477000000","TIME_SYSTEM":"UTC","TLE_LINE1":"1 48026U 21024BB  22359.80717455  .00001280  00000-0  10477-3 0  9990","ARG_OF_PERICENTER":"115.4427","FILE":"3722315","SEMIMAJOR_AXIS":"6925.341","LAUNCH_DATE":"2021-03-24","CENTER_NAME":"EARTH","OBJECT_TYPE":"PAYLOAD","NORAD_CAT_ID":"48026","TLE_LINE2":"2 48026  53.0544 188.4284 0001271 115.4427 244.6694 15.06402360 98170","REV_AT_EPOCH":"9817","ELEMENT_SET_NO":"999","DECAY_DATE":null,"SITE":"AFETR","PERIOD":"95.592","OBJECT_ID":"2021-024BB","EPOCH":"2022-12-25T19:22:19.881120"},{"EPHEMERIS_TYPE":"0","MEAN_ANOMALY":"270.1772","ARG_OF_PERICENTER":"89.9355","TLE_LINE1":"1 48027U 21024BC  22359.76708791 -.00000208  00000-0  48988-5 0  9999","APOAPSIS":"548.079","BSTAR":"0.00000489880000","TIME_SYSTEM":"UTC","OBJECT_NAME":"STARLINK-2300","OBJECT_TYPE":"PAYLOAD","CENTER_NAME":"EARTH","LAUNCH_DATE":"2021-03-24","SEMIMAJOR_AXIS":"6925.382","FILE":"3722315","EPOCH":"2022-12-25T18:24:36.395424","SITE":"AFETR","DECAY_DATE":null,"PERIOD":"95.593","OBJECT_ID":"2021-024BC","ELEMENT_SET_NO":"999","REV_AT_EPOCH":"9851","TLE_LINE2":"2 48027  53.0544 163.6002 0001201  89.9355 270.1772 15.06389051 98512","NORAD_CAT_ID":"48027","MEAN_MOTION_DDOT":"0.0000000000000","ECCENTRICITY":"0.00012010","MEAN_ELEMENT_THEORY":"SGP4","REF_FRAME":"TEME","RA_OF_ASC_NODE":"163.6002","COUNTRY_CODE":"US","GP_ID":"221449930","MEAN_MOTION":"15.06389051","RCS_SIZE":"LARGE","INCLINATION":"53.0544","PERIAPSIS":"546.415","MEAN_MOTION_DOT":"-0.00000208","CLASSIFICATION_TYPE":"U"},{"INCLINATION":"53.0543","RCS_SIZE":"LARGE","PERIAPSIS":"545.988","MEAN_MOTION_DOT":"-0.00000687","CLASSIFICATION_TYPE":"U","MEAN_MOTION":"15.06387920","RA_OF_ASC_NODE":"119.0805","COUNTRY_CODE":"US","GP_ID":"221450180","MEAN_MOTION_DDOT":"0.0000000000000","ECCENTRICITY":"0.00018230","MEAN_ELEMENT_THEORY":"SGP4","REF_FRAME":"TEME","EPOCH":"2022-12-25T18:01:27.213888","OBJECT_ID":"2021-024BD","DECAY_DATE":null,"SITE":"AFETR","PERIOD":"95.593","ELEMENT_SET_NO":"999","REV_AT_EPOCH":"9919","TLE_LINE2":"2 48028  53.0543 119.0805 0001823  49.0546 311.0601 15.06387920 99191","NORAD_CAT_ID":"48028","OBJECT_TYPE":"PAYLOAD","CENTER_NAME":"EARTH","LAUNCH_DATE":"2021-03-24","SEMIMAJOR_AXIS":"6925.386","FILE":"3722315","ARG_OF_PERICENTER":"49.0546","TLE_LINE1":"1 48028U 21024BD  22359.75100942 -.00000687  00000-0 -27236-4 0  9997","APOAPSIS":"548.513","BSTAR":"-0.00002723600000","TIME_SYSTEM":"UTC","OBJECT_NAME":"STARLINK-2264","EPHEMERIS_TYPE":"0","MEAN_ANOMALY":"311.0601"},{"MEAN_MOTION_DOT":"0.00000056","INCLINATION":"53.0539","RCS_SIZE":"LARGE","PERIAPSIS":"546.187","CLASSIFICATION_TYPE":"U","MEAN_MOTION":"15.06399270","COUNTRY_CODE":"US","RA_OF_ASC_NODE":"183.1247","GP_ID":"221451431","MEAN_ELEMENT_THEORY":"SGP4","ECCENTRICITY":"0.00014860","MEAN_MOTION_DDOT":"0.0000000000000","REF_FRAME":"TEME","DECAY_DATE":null,"SITE":"AFETR","PERIOD":"95.592","OBJECT_ID":"2021-024BE","ELEMENT_SET_NO":"999","EPOCH":"2022-12-25T20:55:52.447584","TLE_LINE2":"2 48029  53.0539 183.1247 0001486  82.6390 277.4768 15.06399270 98317","NORAD_CAT_ID":"48029","REV_AT_EPOCH":"9831","CENTER_NAME":"EARTH","OBJECT_TYPE":"PAYLOAD","FILE":"3722315","LAUNCH_DATE":"2021-03-24","SEMIMAJOR_AXIS":"6925.351","ARG_OF_PERICENTER":"82.6390","OBJECT_NAME":"STARLINK-2299","TLE_LINE1":"1 48029U 21024BE  22359.87213481  .00000056  00000-0  22648-4 0  9994","TIME_SYSTEM":"UTC","APOAPSIS":"548.245","BSTAR":"0.00002264800000","MEAN_ANOMALY":"277.4768","EPHEMERIS_TYPE":"0"},{"MEAN_MOTION_DOT":"-0.00000559","PERIAPSIS":"546.428","RCS_SIZE":"LARGE","INCLINATION":"53.0533","CLASSIFICATION_TYPE":"U","MEAN_MOTION":"15.06386603","COUNTRY_CODE":"US","RA_OF_ASC_NODE":"188.3180","GP_ID":"221451182","MEAN_ELEMENT_THEORY":"SGP4","MEAN_MOTION_DDOT":"0.0000000000000","ECCENTRICITY":"0.00011930","REF_FRAME":"TEME","ELEMENT_SET_NO":"999","SITE":"AFETR","DECAY_DATE":null,"PERIOD":"95.593","OBJECT_ID":"2021-024BF","EPOCH":"2022-12-25T19:59:29.564448","NORAD_CAT_ID":"48030","TLE_LINE2":"2 48030  53.0533 188.3180 0001193  86.8395 273.2730 15.06386603 98175","REV_AT_EPOCH":"9817","CENTER_NAME":"EARTH","OBJECT_TYPE":"PAYLOAD","FILE":"3722315","SEMIMAJOR_AXIS":"6925.390","LAUNCH_DATE":"2021-03-24","ARG_OF_PERICENTER":"86.8395","OBJECT_NAME":"STARLINK-2268","APOAPSIS":"548.081","BSTAR":"-0.00001864100000","TIME_SYSTEM":"UTC","TLE_LINE1":"1 48030U 21024BF  22359.83298107 -.00000559  00000-0 -18641-4 0  9998","MEAN_ANOMALY":"273.2730","EPHEMERIS_TYPE":"0"},{"COUNTRY_CODE":"US","RA_OF_ASC_NODE":"73.7399","GP_ID":"221450430","MEAN_ELEMENT_THEORY":"SGP4","ECCENTRICITY":"0.00018680","MEAN_MOTION_DDOT":"0.0000000000000","REF_FRAME":"TEME","MEAN_MOTION_DOT":"-0.00000201","PERIAPSIS":"545.951","INCLINATION":"53.0560","RCS_SIZE":"MEDIUM","CLASSIFICATION_TYPE":"U","MEAN_MOTION":"15.06389992","ARG_OF_PERICENTER":"45.5010","OBJECT_NAME":"STARLINK-2267","APOAPSIS":"548.538","BSTAR":"0.00000538730000","TIME_SYSTEM":"UTC","TLE_LINE1":"1 48031U 21024BG  22359.73852139 -.00000201  00000-0  53873-5 0  9999","MEAN_ANOMALY":"314.6131","EPHEMERIS_TYPE":"0","ELEMENT_SET_NO":"999","DECAY_DATE":null,"SITE":"AFETR","PERIOD":"95.593","OBJECT_ID":"2021-024BG","EPOCH":"2022-12-25T17:43:28.248096","NORAD_CAT_ID":"48031","TLE_LINE2":"2 48031  53.0560  73.7399 0001868  45.5010 314.6131 15.06389992 99776","REV_AT_EPOCH":"9977","CENTER_NAME":"EARTH","OBJECT_TYPE":"PAYLOAD","FILE":"3722315","SEMIMAJOR_AXIS":"6925.379","LAUNCH_DATE":"2021-03-24"}];
